$$SOE
2459580.500000000, A.D. 2022-Jan-01 00:00:00.0000, 4.996219487080131E+08, 4.606606693471204E+08, -3.747287792653347E+08,
2459587.500000000, A.D. 2022-Jan-08 00:00:00.0000, 4.945299532931166E+08, 4.666747612895537E+08, -3.736531345835804E+08,
2459594.500000000, A.D. 2022-Jan-15 00:00:00.0000, 4.893864947781293E+08, 4.726403009348076E+08, -3.725386214733640E+08,
2459601.500000000, A.D. 2022-Jan-22 00:00:00.0000, 4.841920757032760E+08, 4.785566315032014E+08, -3.713853283721985E+08,
2459608.500000000, A.D. 2022-Jan-29 00:00:00.0000, 4.789472053836362E+08, 4.844231030421888E+08, -3.701933479080255E+08,
2459615.500000000, A.D. 2022-Feb-05 00:00:00.0000, 4.736523976610199E+08, 4.902390718426772E+08, -3.689627767528877E+08,
2459622.500000000, A.D. 2022-Feb-12 00:00:00.0000, 4.683081708282584E+08, 4.960038987871161E+08, -3.676937157613139E+08,
2459629.500000000, A.D. 2022-Feb-19 00:00:00.0000, 4.629150484011585E+08, 5.017169489981663E+08, -3.663862700783229E+08,
2459636.500000000, A.D. 2022-Feb-26 00:00:00.0000, 4.574735594266797E+08, 5.073775920648713E+08, -3.650405491558919E+08,
2459643.500000000, A.D. 2022-Mar-05 00:00:00.0000, 4.519842384865434E+08, 5.129852022294537E+08, -3.636566667431101E+08,
2459650.500000000, A.D. 2022-Mar-12 00:00:00.0000, 4.464476256180688E+08, 5.185391584690970E+08, -3.622347408759999E+08,
2459657.500000000, A.D. 2022-Mar-19 00:00:00.0000, 4.408642662232770E+08, 5.240388445008889E+08, -3.607748938715228E+08,
2459664.500000000, A.D. 2022-Mar-26 00:00:00.0000, 4.352347109886489E+08, 5.294836487041652E+08, -3.592772523285844E+08,
2459671.500000000, A.D. 2022-Apr-02 00:00:00.0000, 4.295595158833256E+08, 5.348729639046400E+08, -3.577419471470920E+08,
2459678.500000000, A.D. 2022-Apr-09 00:00:00.0000, 4.238392425078168E+08, 5.402061870253961E+08, -3.561691135898770E+08,
2459685.500000000, A.D. 2022-Apr-16 00:00:00.0000, 4.180744591504110E+08, 5.454827192589884E+08, -3.545588913670087E+08,
2459692.500000000, A.D. 2022-Apr-23 00:00:00.0000, 4.122657412824175E+08, 5.507019678449749E+08, -3.529114245375386E+08,
2459699.500000000, A.D. 2022-Apr-30 00:00:00.0000, 4.064136696219145E+08, 5.558633472077363E+08, -3.512268612405571E+08,
2459706.500000000, A.D. 2022-May-07 00:00:00.0000, 4.005188288286889E+08, 5.609662774813414E+08, -3.495053536979704E+08,
2459713.500000000, A.D. 2022-May-14 00:00:00.0000, 3.945818082199274E+08, 5.660101834597605E+08, -3.477470583683593E+08,
2459720.500000000, A.D. 2022-May-21 00:00:00.0000, 3.886032024756097E+08, 5.709944947310796E+08, -3.459521360035453E+08,
2459727.500000000, A.D. 2022-May-28 00:00:00.0000, 3.825836118547499E+08, 5.759186460369804E+08, -3.441207516422268E+08,
2459734.500000000, A.D. 2022-Jun-04 00:00:00.0000, 3.765236421995853E+08, 5.807820775447872E+08, -3.422530745916545E+08,
2459741.500000000, A.D. 2022-Jun-11 00:00:00.0000, 3.704239048724253E+08, 5.855842350344192E+08, -3.403492784104224E+08,
2459748.500000000, A.D. 2022-Jun-18 00:00:00.0000, 3.642850166639147E+08, 5.903245700137423E+08, -3.384095408948137E+08,
2459755.500000000, A.D. 2022-Jun-25 00:00:00.0000, 3.581075997022110E+08, 5.950025397293705E+08, -3.364340440740573E+08,
2459762.500000000, A.D. 2022-Jul-02 00:00:00.0000, 3.518922814972014E+08, 5.996176070074275E+08, -3.344229742320930E+08,
2459769.500000000, A.D. 2022-Jul-09 00:00:00.0000, 3.456396955101420E+08, 6.041692401014534E+08, -3.323765219770913E+08,
2459776.500000000, A.D. 2022-Jul-16 00:00:00.0000, 3.393504821936935E+08, 6.086569136303072E+08, -3.302948822650182E+08,
2459783.500000000, A.D. 2022-Jul-23 00:00:00.0000, 3.330252883039605E+08, 6.130801106836159E+08, -3.281782541688436E+08,
2459790.500000000, A.D. 2022-Jul-30 00:00:00.0000, 3.266647645683810E+08, 6.174383227408229E+08, -3.260268406747739E+08,
2459797.500000000, A.D. 2022-Aug-06 00:00:00.0000, 3.202695653081658E+08, 6.217310480521585E+08, -3.238408487825278E+08,
2459804.500000000, A.D. 2022-Aug-13 00:00:00.0000, 3.138403491921729E+08, 6.259577912359607E+08, -3.216204896088581E+08,
2459811.500000000, A.D. 2022-Aug-20 00:00:00.0000, 3.073777795527999E+08, 6.301180635888900E+08, -3.193659783912010E+08,
2459818.500000000, A.D. 2022-Aug-27 00:00:00.0000, 3.008825243319656E+08, 6.342113833825173E+08, -3.170775344568769E+08,
2459825.500000000, A.D. 2022-Sep-03 00:00:00.0000, 2.943552559051141E+08, 6.382372760358193E+08, -3.147553811895249E+08,
2459832.500000000, A.D. 2022-Sep-10 00:00:00.0000, 2.877966508734059E+08, 6.421952741875423E+08, -3.123997459990373E+08,
2459839.500000000, A.D. 2022-Sep-17 00:00:00.0000, 2.812073898535837E+08, 6.460849176667001E+08, -3.100108602978356E+08,
2459846.500000000, A.D. 2022-Sep-24 00:00:00.0000, 2.745881573260041E+08, 6.499057533103136E+08, -3.075889594932385E+08,
2459853.500000000, A.D. 2022-Oct-01 00:00:00.0000, 2.679396417808622E+08, 6.536573346060845E+08, -3.051342830198789E+08,
2459860.500000000, A.D. 2022-Oct-08 00:00:00.0000, 2.612625365699772E+08, 6.573392216820865E+08, -3.026470744070926E+08,
2459867.500000000, A.D. 2022-Oct-15 00:00:00.0000, 2.545575405324361E+08, 6.609509828425566E+08, -3.001275811980298E+08,
2459874.500000000, A.D. 2022-Oct-22 00:00:00.0000, 2.478253562124652E+08, 6.644921959656501E+08, -2.975760546580601E+08,
2459881.500000000, A.D. 2022-Oct-29 00:00:00.0000, 2.410666881671370E+08, 6.679624471697224E+08, -2.949927497137489E+08,
2459888.500000000, A.D. 2022-Nov-05 00:00:00.0000, 2.342822434633112E+08, 6.713613294894545E+08, -2.923779250914137E+08,
2459895.500000000, A.D. 2022-Nov-12 00:00:00.0000, 2.274727323991403E+08, 6.746884428289586E+08, -2.897318433717231E+08,
2459902.500000000, A.D. 2022-Nov-19 00:00:00.0000, 2.206388687307681E+08, 6.779433942376108E+08, -2.870547709724152E+08,
2459909.500000000, A.D. 2022-Nov-26 00:00:00.0000, 2.137813696664073E+08, 6.811257981112064E+08, -2.843469781157458E+08,
2459916.500000000, A.D. 2022-Dec-03 00:00:00.0000, 2.069009557938035E+08, 6.842352763068779E+08, -2.816087387969070E+08,
2459923.500000000, A.D. 2022-Dec-10 00:00:00.0000, 1.999983509865925E+08, 6.872714581904174E+08, -2.788403307560886E+08,
2459930.500000000, A.D. 2022-Dec-17 00:00:00.0000, 1.930742823142377E+08, 6.902339805909854E+08, -2.760420354584872E+08,
2459937.500000000, A.D. 2022-Dec-24 00:00:00.0000, 1.861294800648896E+08, 6.931224875973574E+08, -2.732141380976549E+08,
2459944.500000000, A.D. 2022-Dec-31 00:00:00.0000, 1.791646782387610E+08, 6.959366303032674E+08, -2.703569276462042E+08,
2459951.500000000, A.D. 2023-Jan-07 00:00:00.0000, 1.721806156347717E+08, 6.986760674643179E+08, -2.674706968865221E+08,
2459958.500000000, A.D. 2023-Jan-14 00:00:00.0000, 1.651780355635598E+08, 7.013404675631914E+08, -2.645557422004131E+08,
2459965.500000000, A.D. 2023-Jan-21 00:00:00.0000, 1.581576835420192E+08, 7.039295091103570E+08, -2.616123633175932E+08,
2459972.500000000, A.D. 2023-Jan-28 00:00:00.0000, 1.511203066371836E+08, 7.064428789849502E+08, -2.586408633754725E+08,
2459979.500000000, A.D. 2023-Feb-04 00:00:00.0000, 1.440666542510622E+08, 7.088802718438051E+08, -2.556415490238081E+08,
2459986.500000000, A.D. 2023-Feb-11 00:00:00.0000, 1.369974785513858E+08, 7.112413904050685E+08, -2.526147304253072E+08,
2459993.500000000, A.D. 2023-Feb-18 00:00:00.0000, 1.299135344851311E+08, 7.135259457832822E+08, -2.495607212135019E+08,
2460000.500000000, A.D. 2023-Feb-25 00:00:00.0000, 1.228155796377826E+08, 7.157336577142981E+08, -2.464798384450815E+08,
2460007.500000000, A.D. 2023-Mar-04 00:00:00.0000, 1.157043740407655E+08, 7.178642546890243E+08, -2.433724025543460E+08,
2460014.500000000, A.D. 2023-Mar-11 00:00:00.0000, 1.085806799559288E+08, 7.199174739966514E+08, -2.402387373121407E+08,
2460021.500000000, A.D. 2023-Mar-18 00:00:00.0000, 1.014452616843810E+08, 7.218930616280136E+08, -2.370791697973530E+08,
2460028.500000000, A.D. 2023-Mar-25 00:00:00.0000, 9.429888560315232E+07, 7.237907719919828E+08, -2.338940304031735E+08,
2460035.500000000, A.D. 2023-Apr-01 00:00:00.0000, 8.714232085431242E+07, 7.256103678384857E+08, -2.306836528846667E+08,
2460042.500000000, A.D. 2023-Apr-08 00:00:00.0000, 7.997634007128684E+07, 7.273516216133523E+08, -2.274483742909335E+08,
2460049.500000000, A.D. 2023-Apr-15 00:00:00.0000, 7.280171780552042E+07, 7.290143171388632E+08, -2.241885346576900E+08,
2460056.500000000, A.D. 2023-Apr-22 00:00:00.0000, 6.561922846256074E+07, 7.305982485680567E+08, -2.209044768754163E+08,
2460063.500000000, A.D. 2023-Apr-29 00:00:00.0000, 5.842964648252615E+07, 7.321032188660609E+08, -2.175965467999895E+08,
2460070.500000000, A.D. 2023-May-06 00:00:00.0000, 5.123374700498819E+07, 7.335290395999200E+08, -2.142650932990019E+08,
2460077.500000000, A.D. 2023-May-13 00:00:00.0000, 4.403230604170456E+07, 7.348755311434317E+08, -2.109104682172983E+08,
2460084.500000000, A.D. 2023-May-20 00:00:00.0000, 3.682610039144548E+07, 7.361425228059108E+08, -2.075330263234777E+08,
2460091.500000000, A.D. 2023-May-27 00:00:00.0000, 2.961590749045933E+07, 7.373298528554758E+08, -2.041331252577186E+08,
2460098.500000000, A.D. 2023-Jun-03 00:00:00.0000, 2.240250525620446E+07, 7.384373684628590E+08, -2.007111254843357E+08,
2460105.500000000, A.D. 2023-Jun-10 00:00:00.0000, 1.518667194815090E+07, 7.394649255519860E+08, -1.972673902526345E+08,
2460112.500000000, A.D. 2023-Jun-17 00:00:00.0000, 7.969186134691222E+06, 7.404123884972236E+08, -1.938022855793994E+08,
2460119.500000000, A.D. 2023-Jun-24 00:00:00.0000, 7.508270861282259E+05, 7.412796297229542E+08, -1.903161802780762E+08,
2460126.500000000, A.D. 2023-Jul-01 00:00:00.0000, -6.467624153131180E+06, 7.420665300336864E+08, -1.868094459904525E+08,
2460133.500000000, A.D. 2023-Jul-08 00:00:00.0000, -1.368538468702733E+07, 7.427729804968674E+08, -1.832824570003416E+08,
2460140.500000000, A.D. 2023-Jul-15 00:00:00.0000, -2.090167196156490E+07, 7.433988830483990E+08, -1.797355899434272E+08,
2460147.500000000, A.D. 2023-Jul-22 00:00:00.0000, -2.811570470862610E+07, 7.439441487863199E+08, -1.761692238207948E+08,
$$EOE